NORAD_CAT_ID,OBJECT_NAME,OBJECT_TYPE,EPOCH,MEAN_MOTION,ECCENTRICITY,INCLINATION,RA_OF_ASC_NODE,ARG_OF_PERICENTER,MEAN_ANOMALY,BSTAR,MEAN_MOTION_DOT,MEAN_MOTION_DDOT,TLE_LINE0,TLE_LINE1,TLE_LINE2,SEMIMAJOR_AXIS,PERIOD,APOGEE,PERIGEE,DECAYED
54161.0,STARLINK-5269,PAYLOAD,2023-10-18 11:58:34,15.08837484,0.0001493,53.2169,334.1324,77.1006,283.0153,0.0013814,0.00021764,0.0,0 STARLINK-5269,1 54161U 22141E   23291.49900916  .00021764  00000-0  13814-2 0  9991,2 54161  53.2169 334.1324 0001493  77.1006 283.0153 15.08837484 53898,6917.888,95.438,540.786,538.72,0.0
54161.0,STARLINK-5269,PAYLOAD,2023-10-18 19:55:30,15.08832751,0.000134,53.2173,332.6451,87.8157,272.2989,0.00099174,0.00015528,0.0,0 STARLINK-5269,1 54161U 22141E   23291.83021033  .00015528  00000-0  99174-3 0  9998,2 54161  53.2173 332.6451 0001340  87.8157 272.2989 15.08832751 53948,6917.903,95.438,540.695,538.841,0.0
54161.0,STARLINK-5269,PAYLOAD,2023-10-19 11:49:21,15.08858061,0.0001648,53.2176,329.6713,85.5825,274.5356,0.0010086,0.00015808,0.0,0 STARLINK-5269,1 54161U 22141E   23292.49260774  .00015808  00000-0  10086-2 0  9993,2 54161  53.2176 329.6713 0001648  85.5825 274.5356 15.08858061 54043,6917.825,95.436,540.83,538.55,0.0
54161.0,STARLINK-5269,PAYLOAD,2023-10-19 19:46:17,15.08846875,0.0001437,53.2169,328.1849,93.6744,266.4412,0.00041907,6.389e-05,0.0,0 STARLINK-5269,1 54161U 22141E   23292.82380863  .00006389  00000-0  41907-3 0  9993,2 54161  53.2169 328.1849 0001437  93.6744 266.4412 15.08846875 54093,6917.859,95.437,540.718,538.73,0.0
54161.0,STARLINK-5269,PAYLOAD,2023-10-20 08:29:22,15.08835917,0.0001881,53.2175,325.8055,93.0117,267.109,4.3526e-05,4.05e-06,0.0,0 STARLINK-5269,1 54161U 22141E   23293.35373338  .00000405  00000-0  43526-4 0  9994,2 54161  53.2175 325.8055 0001881  93.0117 267.1090 15.08835917 54178,6917.893,95.438,541.059,538.457,0.0
54161.0,STARLINK-5269,PAYLOAD,2023-10-21 11:30:56,15.08840244,0.0001815,53.2172,320.7503,94.5103,265.6096,0.00016897,2.402e-05,0.0,0 STARLINK-5269,1 54161U 22141E   23294.47981869  .00002402  00000-0  16897-3 0  9991,2 54161  53.2172 320.7503 0001815  94.5103 265.6096 15.08840244 54342,6917.88,95.438,541.0,538.489,0.0
54161.0,STARLINK-5269,PAYLOAD,2023-10-21 19:27:52,15.0884044,0.0001835,53.2171,319.2633,94.5429,265.5773,0.00020872,3.035e-05,0.0,0 STARLINK-5269,1 54161U 22141E   23294.81101980  .00003035  00000-0  20872-3 0  9998,2 54161  53.2171 319.2633 0001835  94.5429 265.5773 15.08840440 54395,6917.879,95.438,541.013,538.475,0.0
54161.0,STARLINK-5269,PAYLOAD,2023-10-22 11:21:42,15.08855069,0.0001841,53.2165,316.2888,93.667,266.4532,0.00047812,7.333e-05,0.0,0 STARLINK-5269,1 54161U 22141E   23295.47341413  .00007333  00000-0  47812-3 0  9996,2 54161  53.2165 316.2888 0001841  93.6670 266.4532 15.08855069 54499,6917.834,95.437,540.973,538.426,0.0
54161.0,STARLINK-5269,PAYLOAD,2023-10-23 08:01:44,15.0883971,0.0001564,53.2173,312.4221,90.5295,269.5876,8.4861e-05,1.063e-05,0.0,0 STARLINK-5269,1 54161U 22141E   23296.33453940  .00001063  00000-0  84861-4 0  9991,2 54161  53.2173 312.4221 0001564  90.5295 269.5876 15.08839710 54623,6917.881,95.438,540.828,538.664,0.0
54161.0,STARLINK-5269,PAYLOAD,2023-10-24 07:52:31,15.08845383,0.000142,53.2167,307.9639,91.5353,268.5802,0.00047558,7.29e-05,0.0,0 STARLINK-5269,1 54161U 22141E   23297.32814139  .00007290  00000-0  47558-3 0  9991,2 54161  53.2167 307.9639 0001420  91.5353 268.5802 15.08845383 54772,6917.864,95.437,540.711,538.747,0.0
54161.0,STARLINK-5269,PAYLOAD,2023-10-25 09:18:41,15.08840327,0.0001576,53.2168,303.2069,87.2601,272.8571,0.000139,1.925e-05,0.0,0 STARLINK-5269,1 54161U 22141E   23298.38798382  .00001925  00000-0  13900-3 0  9992,2 54161  53.2168 303.2069 0001576  87.2601 272.8571 15.08840327 54931,6917.879,95.438,540.835,538.654,0.0
54161.0,STARLINK-5269,PAYLOAD,2023-10-26 10:44:51,15.08846212,0.0001679,53.217,298.4469,86.1899,273.9285,0.00022336,3.269e-05,0.0,0 STARLINK-5269,1 54161U 22141E   23299.44782287  .00003269  00000-0  22336-3 0  9993,2 54161  53.2170 298.4469 0001679  86.1899 273.9285 15.08846212 55095,6917.861,95.437,540.888,538.565,0.0
54161.0,STARLINK-5269,PAYLOAD,2023-10-27 09:00:15,15.08849909,0.000174,53.2169,294.2822,81.6094,278.5095,0.00030802,4.619e-05,0.0,0 STARLINK-5269,1 54161U 22141E   23300.37518179  .00004619  00000-0  30802-3 0  9992,2 54161  53.2169 294.2822 0001740  81.6094 278.5095 15.08849909 55238,6917.85,95.437,540.919,538.511,0.0
54161.0,STARLINK-5269,PAYLOAD,2023-10-27 16:57:11,15.08841818,0.0001681,53.2169,292.7943,92.9865,267.132,7.4743e-05,9.02e-06,0.0,0 STARLINK-5269,1 54161U 22141E   23300.70638216  .00000902  00000-0  74743-4 0  9998,2 54161  53.2169 292.7943 0001681  92.9865 267.1320 15.08841818 55281,6917.875,95.437,540.903,538.577,0.0
54161.0,STARLINK-5269,PAYLOAD,2023-10-28 07:15:39,15.08845388,0.0001597,53.2159,290.1202,95.7928,264.3246,0.0001449,2.019e-05,0.0,0 STARLINK-5269,1 54161U 22141E   23301.30254195  .00002019  00000-0  14490-3 0  9998,2 54161  53.2159 290.1202 0001597  95.7928 264.3246 15.08845388 55379,6917.864,95.437,540.834,538.624,0.0
54161.0,STARLINK-5269,PAYLOAD,2023-10-28 16:47:58,15.08839878,0.0001689,53.2174,288.3347,93.7023,266.4162,8.4814e-05,1.062e-05,0.0,0 STARLINK-5269,1 54161U 22141E   23301.69998582  .00001062  00000-0  84814-4 0  9990,2 54161  53.2174 288.3347 0001689  93.7023 266.4162 15.08839878 55435,6917.881,95.438,540.914,538.577,0.0
54161.0,STARLINK-5269,PAYLOAD,2023-10-29 08:41:49,15.08854572,0.000167,53.2166,285.3611,99.7107,260.4073,0.00047433,7.272e-05,0.0,0 STARLINK-5269,1 54161U 22141E   23302.36238106  .00007272  00000-0  47433-3 0  9998,2 54161  53.2166 285.3611 0001670  99.7107 260.4073 15.08854572 55530,6917.836,95.437,540.856,538.546,0.0
54161.0,STARLINK-5269,PAYLOAD,2023-10-29 16:38:45,15.08836492,0.000176,53.2182,283.8735,95.0051,265.1142,0.00014278,1.985e-05,0.0,0 STARLINK-5269,1 54161U 22141E   23302.69358743  .00001985  00000-0  14278-3 0  9990,2 54161  53.2182 283.8735 0001760  95.0051 265.1142 15.08836492 55580,6917.891,95.438,540.974,538.539,0.0
54161.0,STARLINK-5269,PAYLOAD,2023-10-29 23:00:18,15.08841145,0.0001845,53.216,282.6861,87.4015,272.7188,0.00021582,3.148e-05,0.0,0 STARLINK-5269,1 54161U 22141E   23302.95854802  .00003148  00000-0  21582-3 0  9995,2 54161  53.2160 282.6861 0001845  87.4015 272.7188 15.08841145 55622,6917.877,95.437,541.018,538.466,0.0
54161.0,STARLINK-5269,PAYLOAD,2023-10-30 08:32:37,15.08845631,0.0001624,53.2174,280.901,95.9897,264.128,0.00042606,6.5e-05,0.0,0 STARLINK-5269,1 54161U 22141E   23303.35598692  .00006500  00000-0  42606-3 0  9997,2 54161  53.2174 280.9010 0001624  95.9897 264.1280 15.08845631 55689,6917.863,95.437,540.852,538.605,0.0
54161.0,STARLINK-5269,PAYLOAD,2023-10-31 05:12:38,15.08845164,0.0001415,53.2168,277.0351,93.1106,267.0048,0.00033897,5.112e-05,0.0,0 STARLINK-5269,1 54161U 22141E   23304.21710936  .00005112  00000-0  33897-3 0  9990,2 54161  53.2168 277.0351 0001415  93.1106 267.0048 15.08845164 55818,6917.865,95.437,540.708,538.751,0.0
54161.0,STARLINK-5269,PAYLOAD,2023-10-31 08:23:24,15.08846892,0.0001465,53.2171,276.4404,91.5539,268.5621,0.00053876,8.298e-05,0.0,0 STARLINK-5269,1 54161U 22141E   23304.34958991  .00008298  00000-0  53876-3 0  9996,2 54161  53.2171 276.4404 0001465  91.5539 268.5621 15.08846892 55835,6917.859,95.437,540.738,538.711,0.0
54161.0,STARLINK-5269,PAYLOAD,2023-10-31 14:44:57,15.08842156,0.0001473,53.2174,275.25,83.922,276.1939,0.00032704,4.921e-05,0.0,0 STARLINK-5269,1 54161U 22141E   23304.61455133  .00004921  00000-0  32704-3 0  9992,2 54161  53.2174 275.2500 0001473  83.9220 276.1939 15.08842156 55873,6917.874,95.437,540.758,538.72,0.0
54161.0,STARLINK-5269,PAYLOAD,2023-11-01 05:03:25,15.08841516,0.0001449,53.2182,272.5776,89.574,270.5418,0.00019256,2.778e-05,0.0,0 STARLINK-5269,1 54161U 22141E   23305.21071348  .00002778  00000-0  19256-3 0  9996,2 54161  53.2182 272.5776 0001449  89.5740 270.5418 15.08841516 55968,6917.876,95.437,540.743,538.738,0.0
54161.0,STARLINK-5269,PAYLOAD,2023-11-01 14:35:44,15.0884355,0.0001459,53.2182,270.7934,89.8661,270.2498,0.00029179,4.359e-05,0.0,0 STARLINK-5269,1 54161U 22141E   23305.60815276  .00004359  00000-0  29179-3 0  9997,2 54161  53.2182 270.7934 0001459  89.8661 270.2498 15.08843550 56023,6917.87,95.437,540.744,538.725,0.0
54161.0,STARLINK-5269,PAYLOAD,2023-11-01 20:57:16,15.08847497,0.0001425,53.218,269.6044,90.3366,269.779,0.00031009,4.652e-05,0.0,0 STARLINK-5269,1 54161U 22141E   23305.87311186  .00004652  00000-0  31009-3 0  9998,2 54161  53.2180 269.6044 0001425  90.3366 269.7790 15.08847497 56068,6917.857,95.437,540.708,538.737,0.0
54161.0,STARLINK-5269,PAYLOAD,2023-11-02 06:29:35,15.08857021,0.000151,53.2188,267.82,91.463,268.6535,0.0005799,8.957e-05,0.0,0 STARLINK-5269,1 54161U 22141E   23306.27054882  .00008957  00000-0  57990-3 0  9999,2 54161  53.2188 267.8200 0001510  91.4630 268.6535 15.08857021 56127,6917.828,95.436,540.738,538.649,0.0
54161.0,STARLINK-5269,PAYLOAD,2023-11-02 14:26:31,15.08846371,0.0001802,53.2177,266.3319,89.3877,270.7322,0.00015286,2.146e-05,0.0,0 STARLINK-5269,1 54161U 22141E   23306.60175086  .00002146  00000-0  15286-3 0  9992,2 54161  53.2177 266.3319 0001802  89.3877 270.7322 15.08846371 56172,6917.861,95.437,540.973,538.479,0.0
54161.0,STARLINK-5269,PAYLOAD,2023-11-03 06:20:22,15.08853893,0.0001693,53.2184,263.3579,88.1371,271.9815,0.00031497,4.73e-05,0.0,0 STARLINK-5269,1 54161U 22141E   23307.26414625  .00004730  00000-0  31497-3 0  9993,2 54161  53.2184 263.3579 0001693  88.1371 271.9815 15.08853893 56277,6917.838,95.437,540.874,538.532,0.0
54161.0,STARLINK-5269,PAYLOAD,2023-11-04 04:35:46,15.08845215,0.0001511,53.2167,259.1947,97.9244,262.192,0.00038432,5.835e-05,0.0,0 STARLINK-5269,1 54161U 22141E   23308.19151062  .00005835  00000-0  38432-3 0  9992,2 54161  53.2167 259.1947 0001511  97.9244 262.1920 15.08845215 56410,6917.864,95.437,540.775,538.684,0.0
